satname,norad_id,inclination_deg,eccentricity,mean_motion_rev_per_day,perigee_km,apogee_km,l1,l2
STARLINK-1296,45412,53.1598,0.0002585,15.33484357,463.65701718487526,467.1951392963256,1 45412U 20019BE  26102.88859113  .00036211  00000+0  11092-2 0  9999,2 45412  53.1598 330.0627 0002585 194.4390 165.6539 15.33484357335212
STARLINK-1309,45414,53.0648,0.0005963,15.61897372,378.14546510646323,386.20781515368253,1 45414U 20019BG  26102.87864941  .00082158  00000+0  92366-3 0  9990,2 45414  53.0648 317.5845 0005963 174.0967 186.0118 15.61897372335360
STARLINK-1316,45415,53.1604,0.0002401,15.33714094,463.0996817155801,466.38563252692984,1 45415U 20019BH  26102.34674044  .00029127  00000+0  88885-3 0  9994,2 45415  53.1604 332.6355 0002401 194.5871 165.5062 15.33714094335158
STARLINK-1286,45417,53.0497,0.0003599,15.53715618,403.4471701771763,408.3303119055781,1 45417U 20019BK  26102.34482316  .00027324  00000+0  42533-3 0  9992,2 45417  53.0497 328.6809 0003599 155.5180 204.6001 15.53715618335453
STARLINK-1308,45419,53.0523,0.0006177,15.57332853,391.195778935562,399.5637815658847,1 45419U 20019BM  26102.96457354  .00072470  00000+0  97097-3 0  9993,2 45419  53.0523 346.6957 0006177 165.6129 194.5059 15.57332853335000
STARLINK-1329,45531,53.045,0.000129,15.66941529,366.79050878070484,368.5309245916105,1 45531U 20025A   26102.85834492  .00039223  00000+0  36611-3 0  9999,2 45531  53.0450 274.2385 0001290 328.3822  31.7115 15.66941529330796
STARLINK-1338,45532,53.0465,0.0001444,15.61127912,383.42132913156365,385.37434919311363,1 45532U 20025B   26102.76996096  .00088157  00000+0  10204-2 0  9998,2 45532  53.0465 279.2729 0001444 166.5534 193.5518 15.61127912330716
STARLINK-1350,45535,53.0713,0.000111,15.37026298,454.14997803802635,455.66691412705677,1 45535U 20025E   26102.67815499  .00008026  00000+0  22865-3 0  9992,2 45535  53.0713 233.4088 0001110 121.4552 238.6559 15.37026298331383
STARLINK-1362,45538,53.1612,0.000155,15.32079062,468.5488632855868,470.67166493746026,1 45538U 20025H   26102.93208645 -.00141738  00000+0 -45876-2 0  9999,2 45538  53.1612 301.7942 0001550  80.5719 279.5457 15.32079062330428
STARLINK-1368,45540,53.1601,7.75e-05,15.32633026,467.42953182545443,468.49067687662773,1 45540U 20025K   26102.94585444  .00012678  00000+0  40764-3 0  9998,2 45540  53.1601 302.1044 0000775  75.5877 284.5211 15.32633026330413
STARLINK-1371,45542,53.049,0.0001846,15.5311176,406.39441457135854,408.89972605011826,1 45542U 20025M   26102.92179361  .00067552  00000+0  10586-2 0  9994,2 45542  53.0490 285.1613 0001846 267.7441  92.3357 15.53111760330644
STARLINK-1372,45543,53.1596,7.35e-05,15.33034028,466.26311077544415,467.2693115474849,1 45543U 20025N   26102.92164798  .00035984  00000+0  11181-2 0  9999,2 45543  53.1596 301.9023 0000735  82.4037 277.7048 15.33034028329513
STARLINK-1373,45544,53.0473,0.0002082,15.57308549,394.03999273366117,396.86051446606143,1 45544U 20025P   26102.78537741  .00079658  00000+0  10673-2 0  9997,2 45544  53.0473 284.4012 0002082 188.2931 171.8046 15.57308549330641
STARLINK-1327,45555,53.0426,0.0004153,15.59824817,385.35360150304496,390.9736908197474,1 45555U 20025AA  26102.79903462  .00081755  00000+0  99567-3 0  9998,2 45555  53.0426 261.1865 0004153 206.0579 154.0225 15.59824817330967
STARLINK-1356,45564,53.0473,0.0002752,15.50442686,413.56302723547833,417.3022079530019,1 45564U 20025AK  26102.70117553  .00065014  00000+0  11214-2 0  9999,2 45564  53.0473 271.2590 0002752 189.2311 170.8647 15.50442686330814
STARLINK-1357,45565,53.0459,0.00056,15.63323746,374.28047604932453,381.84742111173364,1 45565U 20025AL  26102.62132527  .00093951  00000+0  99699-3 0  9994,2 45565  53.0459 232.9182 0005600 294.9367  65.1064 15.63323746331358
STARLINK-1361,45567,53.0474,0.0003509,15.53643133,403.7191558994673,408.4803332468082,1 45567U 20025AN  26102.91431372  .00069312  00000+0  10649-2 0  9999,2 45567  53.0474 269.5284 0003509 153.1251 206.9941 15.53643133330868
STARLINK-1363,45568,53.0366,0.0001576,15.86824264,310.1387362664864,312.24721307450363,1 45568U 20025AP  26103.00002315  .00615469  00000+0  21926-2 0  9992,2 45568  53.0366 225.1636 0001576 288.6662 350.7407 15.86824264  6395
STARLINK-1366,45569,53.0369,0.0001223,15.85053819,315.35448561857265,316.99191389343196,1 45569U 20025AQ  26103.00002315  .00278345  00000+0  11247-2 0  9996,2 45569  53.0369 226.2726 0001223 257.1974 135.3915 15.85053819  6386
STARLINK-1376,45570,53.1569,0.0001715,15.33509379,464.17797626898937,466.5252928706468,1 45570U 20025AR  26102.91251726  .00039501  00000+0  12076-2 0  9999,2 45570  53.1569 278.5013 0001715 282.1472  77.9338 15.33509379330747
STARLINK-1320,45572,53.046,0.0003022,15.74869367,342.97120559123687,347.03467137005373,1 45572U 20025AT  26102.51074504  .00062299  00000+0  41406-3 0  9994,2 45572  53.0460 178.1101 0003022 108.1355 251.9993 15.74869367332127
STARLINK-1321,45573,53.0444,0.0002457,15.54801652,401.06320497975685,404.39532266179776,1 45573U 20025AU  26102.83613637  .00071924  00000+0  10589-2 0  9998,2 45573  53.0444 254.2759 0002457 262.3205  97.7525 15.54801652330769
STARLINK-1331,45578,53.0496,0.0004746,15.54475143,400.4601034029938,406.8974029158935,1 45578U 20025AZ  26102.91124228  .00074100  00000+0  11032-2 0  9998,2 45578  53.0496 260.6431 0004746 246.1199 113.9314 15.54475143330998
STARLINK-1333,45580,53.1577,0.000153,15.30616128,472.9244949121512,475.02124053167427,1 45580U 20025BB  26102.78695453  .00032268  00000+0  10829-2 0  9991,2 45580  53.1577 279.4210 0001530  70.3566 289.7600 15.30616128330723
STARLINK-1335,45581,53.1557,9.67e-05,15.32142822,468.7581250376552,470.0824426163481,1 45581U 20025BC  26103.00002315  .00044639  00000+0  14219-2 0  9999,2 45581  53.1557 275.7853 0000967  50.6178 287.8688 15.32142822  6167
STARLINK-1337,45582,53.0492,0.0004859,15.65274306,369.1698643765494,375.7300847984534,1 45582U 20025BD  26102.92873362  .00091920  00000+0  90361-3 0  9996,2 45582  53.0492 254.6358 0004859 260.2135  99.8331 15.65274306331062
STARLINK-1347,45586,53.0391,0.000247,15.616651,381.1769841274645,384.51691019736336,1 45586U 20025BH  26102.68695646  .00094143  00000+0  10661-2 0  9994,2 45586  53.0391 224.4346 0002470 302.2746  57.8027 15.61665100331460
STARLINK-1364,45589,53.0451,0.0004719,15.55919233,396.28348979669863,402.68020646556397,1 45589U 20025BL  26102.61113037  .00067160  00000+0  94971-3 0  9995,2 45589  53.0451 259.7897 0004719 207.7816 152.2943 15.55919233330960
STARLINK-1365,45590,53.0497,0.0003504,15.51026632,411.34750067153436,416.10723922199304,1 45590U 20025BM  26102.94974495  .00061706  00000+0  10433-2 0  9996,2 45590  53.0497 289.6275 0003504 197.6611 162.4276 15.51026632330594
STARLINK-1443,45660,53.1333,0.0001516,15.28354178,479.6921026713626,481.7717117240245,1 45660U 20035D   26102.75681842  .00035666  00000+0  12810-2 0  9992,2 45660  53.1333 267.4313 0001516 217.9671 142.1222 15.28354178323964
STARLINK-1446,45663,53.0231,0.0003137,15.4438119,431.06021449350646,435.3336454011542,1 45663U 20035G   26102.28453192  .00016235  00000+0  35438-3 0  9991,2 45663  53.0231 199.6172 0003137  23.9830 336.1320 15.44381190324861
STARLINK-1448,45665,53.0461,0.0005278,15.60193043,383.5282889919845,390.669672093044,1 45665U 20035J   26102.88507780  .00093784  00000+0  11234-2 0  9993,2 45665  53.0461 247.1540 0005278 246.8035 113.2422 15.60193043324242
STARLINK-1451,45668,53.0519,7.8e-05,15.11919849,529.8066450597162,530.8843683307605,1 45668U 20035M   26102.87792668  .00018971  00000+0  11089-2 0  9999,2 45668  53.0519 271.4895 0000780  97.8018 262.3062 15.11919849323915
STARLINK-1452,45669,53.0286,0.0001674,15.50285499,414.754499806284,417.02914065529694,1 45669U 20035N   26102.77626928  .00067731  00000+0  11741-2 0  9997,2 45669  53.0286 218.6642 0001674 196.9586 163.1366 15.50285499324640
STARLINK-1453,45670,53.0433,0.0001278,15.60578385,385.12082031652335,386.84972997004934,1 45670U 20035P   26102.29219950  .00091325  00000+0  10790-2 0  9998,2 45670  53.0433 210.5398 0001278 350.1349   9.9638 15.60578385324601
STARLINK-1454,45671,53.0451,0.0004214,15.58629156,388.77081877382625,394.4763730040413,1 45671U 20035Q   26102.69418994  .00094842  00000+0  12056-2 0  9996,2 45671  53.0451 248.5467 0004214 224.9908 135.0763 15.58629156324208
STARLINK-1456,45673,53.0447,0.0004828,15.56444751,394.6846676855803,401.2276632461535,1 45673U 20035S   26102.79293797  .00081870  00000+0  11319-2 0  9999,2 45673  53.0447 241.9586 0004828 303.7766  56.2784 15.56444751324327
STARLINK-1457,45674,53.0406,0.0003333,15.91088271,297.0107658695888,301.4619029343021,1 45674U 20035T   26103.00002315  .00326667  50977-4  10174-2 0  9996,2 45674  53.0406 209.1844 0003333 312.0248 121.8614 15.91088271  6333
STARLINK-1458,45675,53.0484,0.0005005,15.48363149,418.11079030445035,424.91724097110455,1 45675U 20035U   26102.69539364  .00070280  00000+0  13022-2 0  9999,2 45675  53.0484 253.4611 0005005 238.9948 121.0568 15.48363149324116
STARLINK-1460,45676,53.1583,0.0001323,15.30637892,473.0013890106911,474.8144400950823,1 45676U 20035V   26103.00002315  .00021716  00000+0  73321-3 0  9996,2 45676  53.1583 265.5732 0001323  63.5078 190.5370 15.30637892  6233
STARLINK-1392,45677,53.1562,0.0001623,15.33352059,464.70894129716,466.9304896470021,1 45677U 20035W   26102.82294170  .00019688  00000+0  61214-3 0  9991,2 45677  53.1562 266.2693 0001623 101.1228 258.9957 15.33352059323980
STARLINK-1394,45679,53.044,0.0005971,15.56410155,394.0105129083131,402.10264327927325,1 45679U 20035Y   26102.72561705  .00073286  00000+0  10160-2 0  9990,2 45679  53.0440 232.5058 0005971 305.5151  54.5302 15.56410155324445
STARLINK-1402,45685,53.0431,0.000641,15.50643699,410.49119391311797,419.1997974725955,1 45685U 20035AE  26102.81652900  .00058916  00000+0  10099-2 0  9999,2 45685  53.0431 220.2074 0006410 340.2337  19.8421 15.50643699324637
